ONEWEB-0094             
1 45450U 20020AC  25302.35698247  .00000128  00000+0  29565-3 0  9998
2 45450  87.9125  51.7332 0001707 101.3928 258.7395 13.17648039275917
ONEWEB-0087             
1 45451U 20020AD  25302.38612065 -.00000300  00000+0 -88270-3 0  9998
2 45451  87.8859  66.9714 0001464 109.9810 250.1476 13.11419191272335
ONEWEB-0082             
1 45452U 20020AE  25302.38286648 -.00000436  00000+0 -12664-2 0  9996
2 45452  87.8857  66.9970 0001522 107.2291 252.9004 13.11419031272427
ONEWEB-0050             
1 45453U 20020AF  25302.58336806 -.00040062  00000+0 -42676-2 0  9996
2 45453  88.9185 264.6775 0005848  86.7248  16.7434 14.89227418  5690
ONEWEB-0034             
1 45454U 20020AG  25302.40406872  .00000348  00000+0  94731-3 0  9990
2 45454  87.8849  67.0114 0001595  97.9462 262.1847 13.11420080272342
ONEWEB-0060             
1 45455U 20020AH  25302.37524054 -.00000231  00000+0 -68635-3 0  9997
2 45455  87.8836  67.0393 0001638 138.1626 221.9627 13.11414678272295
ONEWEB-0086             
1 45456U 20020AJ  25302.35405674  .00000349  00000+0  94766-3 0  9994
2 45456  87.8847  67.0180 0002061 119.5623 240.5711 13.11416190272352
ONEWEB-0088             
1 45457U 20020AK  25302.40832944  .00000464  00000+0  12725-2 0  9997
2 45457  87.8856  66.9580 0001459  95.9655 264.1639 13.11419655272290
